[Satellite]
VERSION=1.1
NAME=NuSat2
NICKNAME=NuSat2
TLE1=1 41558U 16033C   18018.79444833  .00001165  00000-0  45688-4 0  9994
TLE2=2 41558  97.4503 103.3207 0012443 330.8135  29.2407 15.27753086 91330
